<?xml version="1.0" encoding="UTF-8"?>
<ndm xmlns:xsi="http://www.w3.org/2001/XMLSchema-instance" xsi:noNamespaceSchemaLocation="https://sanaregistry.org/r/ndmxml_unqualified/ndmxml-2.0.0-master-2.0.xsd">
<omm id="CCSDS_OMM_VERS" version="2.0">
<header><CREATION_DATE/><ORIGINATOR/></header><body><segment><metadata><OBJECT_NAME>ORBCOMM FM24</OBJECT_NAME><OBJECT_ID>1998-053D</OBJECT_ID><CENTER_NAME>EARTH</CENTER_NAME><REF_FRAME>TEME</REF_FRAME><TIME_SYSTEM>UTC</TIME_SYSTEM><MEAN_ELEMENT_THEORY>SGP4</MEAN_ELEMENT_THEORY></metadata><data><meanElements><EPOCH>2024-08-31T14:38:43.287936</EPOCH><MEAN_MOTION>14.36254954</MEAN_MOTION><ECCENTRICITY>.0001867</ECCENTRICITY><INCLINATION>45.0060</INCLINATION><RA_OF_ASC_NODE>200.4420</RA_OF_ASC_NODE><ARG_OF_PERICENTER>281.6649</ARG_OF_PERICENTER><MEAN_ANOMALY>78.3989</MEAN_ANOMALY></meanElements><tleParameters><EPHEMERIS_TYPE>0</EPHEMERIS_TYPE><CLASSIFICATION_TYPE>U</CLASSIFICATION_TYPE><NORAD_CAT_ID>25478</NORAD_CAT_ID><ELEMENT_SET_NO>999</ELEMENT_SET_NO><REV_AT_EPOCH>35606</REV_AT_EPOCH><BSTAR>.15463E-2</BSTAR><MEAN_MOTION_DOT>.4418E-4</MEAN_MOTION_DOT><MEAN_MOTION_DDOT>0</MEAN_MOTION_DDOT></tleParameters></data></segment></body></omm>
<omm id="CCSDS_OMM_VERS" version="2.0">
<header><CREATION_DATE/><ORIGINATOR/></header><body><segment><metadata><OBJECT_NAME>ORBCOMM FM25</OBJECT_NAME><OBJECT_ID>1998-053E</OBJECT_ID><CENTER_NAME>EARTH</CENTER_NAME><REF_FRAME>TEME</REF_FRAME><TIME_SYSTEM>UTC</TIME_SYSTEM><MEAN_ELEMENT_THEORY>SGP4</MEAN_ELEMENT_THEORY></metadata><data><meanElements><EPOCH>2024-08-31T13:52:08.820768</EPOCH><MEAN_MOTION>14.36237756</MEAN_MOTION><ECCENTRICITY>.0004103</ECCENTRICITY><INCLINATION>45.0059</INCLINATION><RA_OF_ASC_NODE>198.8457</RA_OF_ASC_NODE><ARG_OF_PERICENTER>260.2069</ARG_OF_PERICENTER><MEAN_ANOMALY>99.8315</MEAN_ANOMALY></meanElements><tleParameters><EPHEMERIS_TYPE>0</EPHEMERIS_TYPE><CLASSIFICATION_TYPE>U</CLASSIFICATION_TYPE><NORAD_CAT_ID>25479</NORAD_CAT_ID><ELEMENT_SET_NO>999</ELEMENT_SET_NO><REV_AT_EPOCH>35607</REV_AT_EPOCH><BSTAR>.14461E-2</BSTAR><MEAN_MOTION_DOT>.4121E-4</MEAN_MOTION_DOT><MEAN_MOTION_DDOT>0</MEAN_MOTION_DDOT></tleParameters></data></segment></body></omm>
<omm id="CCSDS_OMM_VERS" version="2.0">
<header><CREATION_DATE/><ORIGINATOR/></header><body><segment><metadata><OBJECT_NAME>ORBCOMM FM26</OBJECT_NAME><OBJECT_ID>1998-053F</OBJECT_ID><CENTER_NAME>EARTH</CENTER_NAME><REF_FRAME>TEME</REF_FRAME><TIME_SYSTEM>UTC</TIME_SYSTEM><MEAN_ELEMENT_THEORY>SGP4</MEAN_ELEMENT_THEORY></metadata><data><meanElements><EPOCH>2024-08-31T13:28:53.706144</EPOCH><MEAN_MOTION>14.35588443</MEAN_MOTION><ECCENTRICITY>.0006588</ECCENTRICITY><INCLINATION>45.0055</INCLINATION><RA_OF_ASC_NODE>193.5519</RA_OF_ASC_NODE><ARG_OF_PERICENTER>269.9532</ARG_OF_PERICENTER><MEAN_ANOMALY>90.0560</MEAN_ANOMALY></meanElements><tleParameters><EPHEMERIS_TYPE>0</EPHEMERIS_TYPE><CLASSIFICATION_TYPE>U</CLASSIFICATION_TYPE><NORAD_CAT_ID>25480</NORAD_CAT_ID><ELEMENT_SET_NO>999</ELEMENT_SET_NO><REV_AT_EPOCH>35600</REV_AT_EPOCH><BSTAR>.13247E-2</BSTAR><MEAN_MOTION_DOT>.3713E-4</MEAN_MOTION_DOT><MEAN_MOTION_DDOT>0</MEAN_MOTION_DDOT></tleParameters></data></segment></body></omm>
<omm id="CCSDS_OMM_VERS" version="2.0">
<header><CREATION_DATE/><ORIGINATOR/></header><body><segment><metadata><OBJECT_NAME>ORBCOMM FM27</OBJECT_NAME><OBJECT_ID>1998-053G</OBJECT_ID><CENTER_NAME>EARTH</CENTER_NAME><REF_FRAME>TEME</REF_FRAME><TIME_SYSTEM>UTC</TIME_SYSTEM><MEAN_ELEMENT_THEORY>SGP4</MEAN_ELEMENT_THEORY></metadata><data><meanElements><EPOCH>2024-08-31T13:36:29.362464</EPOCH><MEAN_MOTION>14.36225740</MEAN_MOTION><ECCENTRICITY>.000196</ECCENTRICITY><INCLINATION>45.0038</INCLINATION><RA_OF_ASC_NODE>199.1564</RA_OF_ASC_NODE><ARG_OF_PERICENTER>330.7391</ARG_OF_PERICENTER><MEAN_ANOMALY>29.3347</MEAN_ANOMALY></meanElements><tleParameters><EPHEMERIS_TYPE>0</EPHEMERIS_TYPE><CLASSIFICATION_TYPE>U</CLASSIFICATION_TYPE><NORAD_CAT_ID>25481</NORAD_CAT_ID><ELEMENT_SET_NO>999</ELEMENT_SET_NO><REV_AT_EPOCH>35600</REV_AT_EPOCH><BSTAR>.16726E-2</BSTAR><MEAN_MOTION_DOT>.4788E-4</MEAN_MOTION_DOT><MEAN_MOTION_DDOT>0</MEAN_MOTION_DDOT></tleParameters></data></segment></body></omm>
<omm id="CCSDS_OMM_VERS" version="2.0">
<header><CREATION_DATE/><ORIGINATOR/></header><body><segment><metadata><OBJECT_NAME>ORBCOMM FM28</OBJECT_NAME><OBJECT_ID>1998-053H</OBJECT_ID><CENTER_NAME>EARTH</CENTER_NAME><REF_FRAME>TEME</REF_FRAME><TIME_SYSTEM>UTC</TIME_SYSTEM><MEAN_ELEMENT_THEORY>SGP4</MEAN_ELEMENT_THEORY></metadata><data><meanElements><EPOCH>2024-08-30T23:08:44.364768</EPOCH><MEAN_MOTION>14.36615028</MEAN_MOTION><ECCENTRICITY>.0004003</ECCENTRICITY><INCLINATION>45.0052</INCLINATION><RA_OF_ASC_NODE>140.1135</RA_OF_ASC_NODE><ARG_OF_PERICENTER>296.6628</ARG_OF_PERICENTER><MEAN_ANOMALY>63.3810</MEAN_ANOMALY></meanElements><tleParameters><EPHEMERIS_TYPE>0</EPHEMERIS_TYPE><CLASSIFICATION_TYPE>U</CLASSIFICATION_TYPE><NORAD_CAT_ID>25482</NORAD_CAT_ID><ELEMENT_SET_NO>999</ELEMENT_SET_NO><REV_AT_EPOCH>35676</REV_AT_EPOCH><BSTAR>.13829E-2</BSTAR><MEAN_MOTION_DOT>.3966E-4</MEAN_MOTION_DOT><MEAN_MOTION_DDOT>0</MEAN_MOTION_DDOT></tleParameters></data></segment></body></omm>
<omm id="CCSDS_OMM_VERS" version="2.0">
<header><CREATION_DATE/><ORIGINATOR/></header><body><segment><metadata><OBJECT_NAME>ORBCOMM FM30</OBJECT_NAME><OBJECT_ID>1999-065A</OBJECT_ID><CENTER_NAME>EARTH</CENTER_NAME><REF_FRAME>TEME</REF_FRAME><TIME_SYSTEM>UTC</TIME_SYSTEM><MEAN_ELEMENT_THEORY>SGP4</MEAN_ELEMENT_THEORY></metadata><data><meanElements><EPOCH>2024-08-31T02:17:37.526208</EPOCH><MEAN_MOTION>14.35726773</MEAN_MOTION><ECCENTRICITY>.0004928</ECCENTRICITY><INCLINATION>45.0331</INCLINATION><RA_OF_ASC_NODE>21.3940</RA_OF_ASC_NODE><ARG_OF_PERICENTER>344.1961</ARG_OF_PERICENTER><MEAN_ANOMALY>15.8733</MEAN_ANOMALY></meanElements><tleParameters><EPHEMERIS_TYPE>0</EPHEMERIS_TYPE><CLASSIFICATION_TYPE>U</CLASSIFICATION_TYPE><NORAD_CAT_ID>25980</NORAD_CAT_ID><ELEMENT_SET_NO>999</ELEMENT_SET_NO><REV_AT_EPOCH>29273</REV_AT_EPOCH><BSTAR>.13142E-2</BSTAR><MEAN_MOTION_DOT>.3693E-4</MEAN_MOTION_DOT><MEAN_MOTION_DDOT>0</MEAN_MOTION_DDOT></tleParameters></data></segment></body></omm>
<omm id="CCSDS_OMM_VERS" version="2.0">
<header><CREATION_DATE/><ORIGINATOR/></header><body><segment><metadata><OBJECT_NAME>ORBCOMM FM31</OBJECT_NAME><OBJECT_ID>1999-065B</OBJECT_ID><CENTER_NAME>EARTH</CENTER_NAME><REF_FRAME>TEME</REF_FRAME><TIME_SYSTEM>UTC</TIME_SYSTEM><MEAN_ELEMENT_THEORY>SGP4</MEAN_ELEMENT_THEORY></metadata><data><meanElements><EPOCH>2024-08-31T14:50:26.273760</EPOCH><MEAN_MOTION>14.35711170</MEAN_MOTION><ECCENTRICITY>.0001825</ECCENTRICITY><INCLINATION>45.0245</INCLINATION><RA_OF_ASC_NODE>12.5426</RA_OF_ASC_NODE><ARG_OF_PERICENTER>10.1264</ARG_OF_PERICENTER><MEAN_ANOMALY>349.9620</MEAN_ANOMALY></meanElements><tleParameters><EPHEMERIS_TYPE>0</EPHEMERIS_TYPE><CLASSIFICATION_TYPE>U</CLASSIFICATION_TYPE><NORAD_CAT_ID>25981</NORAD_CAT_ID><ELEMENT_SET_NO>999</ELEMENT_SET_NO><REV_AT_EPOCH>29236</REV_AT_EPOCH><BSTAR>.12161E-2</BSTAR><MEAN_MOTION_DOT>.3405E-4</MEAN_MOTION_DOT><MEAN_MOTION_DDOT>0</MEAN_MOTION_DDOT></tleParameters></data></segment></body></omm>
<omm id="CCSDS_OMM_VERS" version="2.0">
<header><CREATION_DATE/><ORIGINATOR/></header><body><segment><metadata><OBJECT_NAME>ORBCOMM FM32</OBJECT_NAME><OBJECT_ID>1999-065C</OBJECT_ID><CENTER_NAME>EARTH</CENTER_NAME><REF_FRAME>TEME</REF_FRAME><TIME_SYSTEM>UTC</TIME_SYSTEM><MEAN_ELEMENT_THEORY>SGP4</MEAN_ELEMENT_THEORY></metadata><data><meanElements><EPOCH>2024-08-31T17:57:10.588608</EPOCH><MEAN_MOTION>14.34725397</MEAN_MOTION><ECCENTRICITY>.0004079</ECCENTRICITY><INCLINATION>45.0174</INCLINATION><RA_OF_ASC_NODE>26.5337</RA_OF_ASC_NODE><ARG_OF_PERICENTER>23.3603</ARG_OF_PERICENTER><MEAN_ANOMALY>336.7429</MEAN_ANOMALY></meanElements><tleParameters><EPHEMERIS_TYPE>0</EPHEMERIS_TYPE><CLASSIFICATION_TYPE>U</CLASSIFICATION_TYPE><NORAD_CAT_ID>25982</NORAD_CAT_ID><ELEMENT_SET_NO>999</ELEMENT_SET_NO><REV_AT_EPOCH>29313</REV_AT_EPOCH><BSTAR>.13121E-2</BSTAR><MEAN_MOTION_DOT>.3611E-4</MEAN_MOTION_DOT><MEAN_MOTION_DDOT>0</MEAN_MOTION_DDOT></tleParameters></data></segment></body></omm>

</ndm>
