ORBCOMM FM24            
1 25478U 98053D   24244.61022324  .00004418  00000+0  15463-2 0  9994
2 25478  45.0060 200.4420 0001867 281.6649  78.3989 14.36254954356060
ORBCOMM FM25            
1 25479U 98053E   24244.57787987  .00004121  00000+0  14461-2 0  9991
2 25479  45.0059 198.8457 0004103 260.2069  99.8315 14.36237756356077
ORBCOMM FM26            
1 25480U 98053F   24244.56173271  .00003713  00000+0  13247-2 0  9994
2 25480  45.0055 193.5519 0006588 269.9532  90.0560 14.35588443356005
ORBCOMM FM27            
1 25481U 98053G   24244.56700651  .00004788  00000+0  16726-2 0  9991
2 25481  45.0038 199.1564 0001960 330.7391  29.3347 14.36225740356005
ORBCOMM FM28            
1 25482U 98053H   24243.96440237  .00003966  00000+0  13829-2 0  9994
2 25482  45.0052 140.1135 0004003 296.6628  63.3810 14.36615028356764
ORBCOMM FM30            
1 25980U 99065A   24244.09557322  .00003693  00000+0  13142-2 0  9995
2 25980  45.0331  21.3940 0004928 344.1961  15.8733 14.35726773292737
ORBCOMM FM31            
1 25981U 99065B   24244.61835965  .00003405  00000+0  12161-2 0  9997
2 25981  45.0245  12.5426 0001825  10.1264 349.9620 14.35711170292362
ORBCOMM FM32            
1 25982U 99065C   24244.74803922  .00003611  00000+0  13121-2 0  9996
2 25982  45.0174  26.5337 0004079  23.3603 336.7429 14.34725397293139
